NAYIF-1 (EO-88)         
1 42017U 17008BX  20083.73555403  .00001574  00000-0  63545-4 0  9999
2 42017  97.3682 152.5259 0004534 261.9266  98.1458 15.26246142172477
MAX VALIER SAT          
1 42778U 17036P   20083.70696490  .00000913  00000-0  42359-4 0  9999
2 42778  97.3160 139.6713 0011171 331.1133  28.9484 15.22462767152681
RADFXSAT (FOX-1B)       
1 43017U 17073E   20083.73231045  .00000801  00000-0  68090-4 0  9997
2 43017  97.7260 359.2642 0256640 329.9553  28.7139 14.78851695126494
FOX-1D (AO-92)          
1 43137U 18004AC  20083.73612392  .00001049  00000-0  46331-4 0  9992
2 43137  97.4532 155.4544 0009191   7.7831 352.3547 15.23953582121987
ES'HAIL 2               
1 43700U 18090A   20081.77757641  .00000126  00000-0  00000+0 0  9995
2 43700   0.0122 139.9838 0002375 258.4459  87.0227  1.00274494  5075
FOX-1CLIFF (AO-95)      
1 43770U 18099N   20083.76768074  .00000165  00000-0  20336-4 0  9996
2 43770  97.7130 156.6150 0015981 120.4590 239.8211 14.94934253 71119
ITASAT 1                
1 43786U 18099AE  20083.71732444 -.00000135  00000-0 -69981-5 0  9999
2 43786  97.7143 156.9235 0016568 115.2323 245.0617 14.95279534 71120
JY1SAT (JO-97)          
1 43803U 18099AX  20083.74167356  .00000670  00000-0  65612-4 0  9994
2 43803  97.7103 156.7875 0016677 115.8751 244.4192 14.95443885 71129
PSAT2 (NO-104)          
1 44354U 19036R   20083.71946139  .00014711  00000-0  21949-3 0  9994
2 44354  28.5286 223.0579 0371460 116.3122 247.6110 15.01717538 40900
BRICSAT2 (NO-103)       
1 44355U 19036S   20082.60583315  .00024641  00000-0  35822-3 0  9993
2 44355  28.5283 225.7215 0356467 111.9760 251.9100 15.05466304 40782
JAISAT-1                
1 44419U 19038F   20083.82735044  .00001046  00000-0  63260-4 0  9991
2 44419  97.5289  46.4869 0023275  67.4216 292.9474 15.12632980 39653
DUCHIFAT-3              
1 44854U 19089C   20083.76816652  .00000427  00000-0  41050-4 0  9993
2 44854  36.9659 244.7127 0007055  79.3992 280.7554 14.99001097 15432
HUSKYSAT-1              
1 45119U 19071J   20081.67690990  .00001765  00000-0  65619-4 0  9995
2 45119  51.6429  67.3704 0012951  96.9003 263.3453 15.33245959  7651
